{
"type": "FeatureCollection",
"name": "seine_simple",
"crs": { "type": "name", "properties": { "name": "urn:ogc:def:crs:OGC:1.3:CRS84" } },
"features": [
{ "type": "Feature", "properties": { "fid": 1, "id": 152887, "layer": null, "harbour:bottle_gas": null, "covered": null, "harbour:telephone": null, "tourism": null, "name:eo": null, "reservoir": null, "maxlength": null, "harbour:electricity": null, "harbour:boat_hoist": null, "maxairdraft": null, "harbour:showers": null, "boat": null, "lit": null, "sport": null, "type": "multipolygon", "harbour:laundrette": null, "drinking_water": null, "level": null, "man_made": null, "artwork_type": null, "seamark:harbour:category": null, "harbour:provisions": null, "water": "river", "width": null, "harbour:pharmacy": null, "description": null, "harbour:doctor": null, "CLC:year": null, "alt_name": null, "note": null, "historic": null, "height": null, "roof:shape": null, "name:br": null, "amenity": null, "roof:material": null, "APUR_objectid": null, "operator": null, "CLC:id": null, "landuse": null, "artist_name": null, "ref": null, "seamark:type": null, "waterway": null, "harbour": null, "capacity": null, "start_date": null, "fishing": null, "wikipedia": null, "harbour:toilets": null, "access": null, "tunnel": null, "harbour:refuse_bin": null, "source:name": null, "name:de": null, "surface": null, "salt": null, "website": null, "heritage:operator": null, "vhf": null, "barrier": null, "name:cs": null, "intermittent": null, "mhs:inscription_date": null, "image": null, "wikimedia_commons": null, "harbour:water_tap": null, "source": null, "check_date": null, "name:fr": null, "CLC:code": null, "name:en": null, "leisure": null, "phone": null, "motorboat": null, "url": null, "ref:mhs": null, "name:es": null, "maxdraft": null, "harbour:chandler": null, "name:ru": null, "name:nl": null, "architect": null, "panoramax": null, "location": null, "basin": null, "wikidata": null, "fountain": null, "tidal": null, "ref:FR:FANTOIR": null, "name": null, "natural": "water", "fax": null }, "geometry": { "type": "Polygon", "coordinates": [ [ [ 2.2795723, 48.9015193 ], [ 2.2799094, 48.9008373 ], [ 2.2803965, 48.9000422 ], [ 2.2804204, 48.9000122 ], [ 2.2803669, 48.8999937 ], [ 2.2803346, 48.8999694 ], [ 2.2795831, 48.8997273 ], [ 2.2795589, 48.8996684 ], [ 2.2794853, 48.8996482 ], [ 2.2794794, 48.8996551 ], [ 2.27947, 48.8996605 ], [ 2.2794552, 48.8996651 ], [ 2.2794411, 48.8996656 ], [ 2.2794269, 48.8996637 ], [ 2.2791139, 48.899562399999986 ], [ 2.2788188, 48.899442 ], [ 2.2785605, 48.8993409 ], [ 2.2785371, 48.8993229 ], [ 2.2783297, 48.899254699999986 ], [ 2.2782876, 48.8992413 ], [ 2.278314, 48.8992105 ], [ 2.278134, 48.89912 ], [ 2.2778636, 48.898979299999986 ], [ 2.2776537, 48.8989118 ], [ 2.2774178, 48.8988171 ], [ 2.2770868, 48.898687299999985 ], [ 2.2766876, 48.8985314 ], [ 2.2761657, 48.8983317 ], [ 2.2758361, 48.8982006 ], [ 2.275397, 48.8980559 ], [ 2.2753487, 48.8980386 ], [ 2.2747496, 48.8978445 ], [ 2.2739241, 48.8975146 ], [ 2.2735344, 48.8973485 ], [ 2.2730761, 48.8971156 ], [ 2.272652, 48.8968103 ], [ 2.272628, 48.896793 ], [ 2.2718807, 48.8961627 ], [ 2.2712021, 48.8957107 ], [ 2.2711672, 48.8957249 ], [ 2.2706995, 48.8954123 ], [ 2.2695253, 48.8948203 ], [ 2.2695128, 48.8948332 ], [ 2.2684851, 48.8943332 ], [ 2.2675698, 48.893882 ], [ 2.2675476, 48.8938702 ], [ 2.2672254, 48.8936986 ], [ 2.2671992, 48.893687 ], [ 2.2652701, 48.8926518 ], [ 2.2653067, 48.8926206 ], [ 2.2647766, 48.8922915 ], [ 2.2626274, 48.8912623 ], [ 2.2616871, 48.890928 ], [ 2.2608684, 48.8905428 ], [ 2.2606889, 48.89044 ], [ 2.2606623, 48.8904251 ], [ 2.2604771, 48.8903171 ], [ 2.2599874, 48.889986 ], [ 2.2580266, 48.8885603 ], [ 2.2577811, 48.8887029 ], [ 2.2568526, 48.8892414 ], [ 2.2561508, 48.88965 ], [ 2.2574657, 48.8907107 ], [ 2.2586104, 48.891548899999989 ], [ 2.25891, 48.8917661 ], [ 2.2589196, 48.8917731 ], [ 2.2590675, 48.8917887 ], [ 2.2596035, 48.8922424 ], [ 2.2596322, 48.8922729 ], [ 2.2596634, 48.8923058 ], [ 2.2599782, 48.8926414 ], [ 2.2602702, 48.892969199999989 ], [ 2.2604891, 48.893196399999987 ], [ 2.2606594, 48.8933715 ], [ 2.2607788, 48.8933259 ], [ 2.2609252, 48.8934972 ], [ 2.2608474, 48.8935237 ], [ 2.2615418, 48.8941674 ], [ 2.2619438, 48.8945369 ], [ 2.2623151, 48.8948737 ], [ 2.2624586, 48.8949913 ], [ 2.2628045, 48.8953064 ], [ 2.2628227, 48.8953199 ], [ 2.2630385, 48.8954996 ], [ 2.2630634, 48.895514699999985 ], [ 2.2630974, 48.8955674 ], [ 2.2631413, 48.895552 ], [ 2.2631714, 48.8955934 ], [ 2.2635257, 48.8958283 ], [ 2.2635495, 48.8958441 ], [ 2.2638601, 48.8960248 ], [ 2.2641123, 48.8961575 ], [ 2.2645277, 48.896340699999989 ], [ 2.2649359, 48.8965196 ], [ 2.2656867, 48.8968444 ], [ 2.2663177, 48.897118499999983 ], [ 2.2675518, 48.8976484 ], [ 2.2688484, 48.8981727 ], [ 2.2689012, 48.8981701 ], [ 2.2693308, 48.898342 ], [ 2.2696903, 48.8984799 ], [ 2.2702704, 48.8986751 ], [ 2.2707325, 48.8988259 ], [ 2.2713313, 48.8990391 ], [ 2.2724461, 48.8994608 ], [ 2.2735535, 48.8998783 ], [ 2.2742837, 48.9001294 ], [ 2.2753528, 48.9004311 ], [ 2.2762342, 48.9006786 ], [ 2.276222, 48.900698799999986 ], [ 2.2766202, 48.9008084 ], [ 2.276848, 48.9008711 ], [ 2.2771728, 48.900960499999989 ], [ 2.2772309, 48.9009556 ], [ 2.2782289, 48.9011906 ], [ 2.278923, 48.901357 ], [ 2.2795723, 48.9015193 ] ] ] } },
{ "type": "Feature", "properties": { "fid": 11, "id": 2155763, "layer": null, "harbour:bottle_gas": null, "covered": null, "harbour:telephone": null, "tourism": null, "name:eo": null, "reservoir": null, "maxlength": null, "harbour:electricity": null, "harbour:boat_hoist": null, "maxairdraft": null, "harbour:showers": null, "boat": null, "lit": null, "sport": null, "type": "multipolygon", "harbour:laundrette": null, "drinking_water": null, "level": null, "man_made": null, "artwork_type": null, "seamark:harbour:category": null, "harbour:provisions": null, "water": "river", "width": null, "harbour:pharmacy": null, "description": null, "harbour:doctor": null, "CLC:year": null, "alt_name": null, "note": null, "historic": null, "height": null, "roof:shape": null, "name:br": null, "amenity": null, "roof:material": null, "APUR_objectid": null, "operator": null, "CLC:id": null, "landuse": null, "artist_name": null, "ref": null, "seamark:type": null, "waterway": null, "harbour": null, "capacity": null, "start_date": null, "fishing": null, "wikipedia": null, "harbour:toilets": null, "access": null, "tunnel": null, "harbour:refuse_bin": null, "source:name": null, "name:de": null, "surface": null, "salt": null, "website": null, "heritage:operator": null, "vhf": null, "barrier": null, "name:cs": null, "intermittent": "no", "mhs:inscription_date": null, "image": null, "wikimedia_commons": null, "harbour:water_tap": null, "source": "Bing", "check_date": null, "name:fr": null, "CLC:code": null, "name:en": null, "leisure": null, "phone": null, "motorboat": "yes", "url": null, "ref:mhs": null, "name:es": null, "maxdraft": null, "harbour:chandler": null, "name:ru": null, "name:nl": null, "architect": null, "panoramax": null, "location": null, "basin": null, "wikidata": null, "fountain": null, "tidal": "no", "ref:FR:FANTOIR": null, "name": "La Seine", "natural": "water", "fax": null }, "geometry": { "type": "Polygon", "coordinates": [ [ [ 2.1560645, 48.8809575 ], [ 2.1575676, 48.8835947 ], [ 2.1583819, 48.8853652 ], [ 2.160084, 48.8877886 ], [ 2.161249, 48.8897791 ], [ 2.1618545, 48.8921134 ], [ 2.162484, 48.89359 ], [ 2.163489, 48.895154 ], [ 2.1690216, 48.8997525 ], [ 2.1713551, 48.9014681 ], [ 2.1748701, 48.9033223 ], [ 2.1796636, 48.9049566 ], [ 2.1810544, 48.905311 ], [ 2.1857268, 48.9057659 ], [ 2.1894784, 48.9065819 ], [ 2.1931217, 48.9084544 ], [ 2.2001646, 48.9110131 ], [ 2.2024816, 48.9121512 ], [ 2.204629, 48.913447 ], [ 2.2093911, 48.9151733 ], [ 2.211518, 48.916227 ], [ 2.213645, 48.9148468 ], [ 2.212943, 48.914271 ], [ 2.207391, 48.910879 ], [ 2.205931, 48.910448 ], [ 2.204002, 48.909469 ], [ 2.197046, 48.90663 ], [ 2.1949815, 48.9052888 ], [ 2.1944, 48.90507 ], [ 2.194293, 48.904833 ], [ 2.1875833, 48.9031155 ], [ 2.183573, 48.9023878 ], [ 2.179925, 48.901209 ], [ 2.175889, 48.899502 ], [ 2.170921, 48.8965 ], [ 2.1684535, 48.8944916 ], [ 2.1667408, 48.8914066 ], [ 2.1658269, 48.8904484 ], [ 2.1649735, 48.8898675 ], [ 2.1641371, 48.8888411 ], [ 2.1636497, 48.8873234 ], [ 2.1641575, 48.8836835 ], [ 2.1640581, 48.883223 ], [ 2.1635509, 48.8824418 ], [ 2.1623842, 48.8816203 ], [ 2.159154, 48.8805294 ], [ 2.1582721, 48.8800481 ], [ 2.1531658, 48.8728488 ], [ 2.1503539, 48.8702437 ], [ 2.1487383, 48.869188 ], [ 2.1471383, 48.8685102 ], [ 2.1441981, 48.8678025 ], [ 2.1398476, 48.8676684 ], [ 2.1356861, 48.8678095 ], [ 2.1308722, 48.8689091 ], [ 2.1303579, 48.8696296 ], [ 2.1305164, 48.8696198 ], [ 2.1304331, 48.8697497 ], [ 2.1300286, 48.8700877 ], [ 2.1301427, 48.8701622 ], [ 2.1305218, 48.8699894 ], [ 2.130297, 48.8701789 ], [ 2.1304932, 48.8702135 ], [ 2.1320477, 48.8692901 ], [ 2.1321701, 48.869389 ], [ 2.1297114, 48.8709243 ], [ 2.1295792, 48.8708973 ], [ 2.1296899, 48.8705837 ], [ 2.1278852, 48.8717943 ], [ 2.1276003, 48.871926 ], [ 2.1278642, 48.8716941 ], [ 2.1277505, 48.8716235 ], [ 2.1265426, 48.8722673 ], [ 2.1238261, 48.8741297 ], [ 2.1205787, 48.8770009 ], [ 2.1167593, 48.8799306 ], [ 2.1156606, 48.8809804 ], [ 2.113668, 48.883675 ], [ 2.1119957, 48.8854529 ], [ 2.1107255, 48.886681 ], [ 2.1090885, 48.8875399 ], [ 2.1080741, 48.8891353 ], [ 2.1072724, 48.8893591 ], [ 2.1074034, 48.8895091 ], [ 2.1068498, 48.8911488 ], [ 2.1068168, 48.8922726 ], [ 2.1074229, 48.8954027 ], [ 2.1075569, 48.9003833 ], [ 2.1078117, 48.9016017 ], [ 2.1097831, 48.9039713 ], [ 2.112181, 48.9059053 ], [ 2.112468, 48.9063161 ], [ 2.1132158, 48.9084807 ], [ 2.1150942, 48.9083508 ], [ 2.1142807, 48.9060901 ], [ 2.112674, 48.9025411 ], [ 2.1120491, 48.9017723 ], [ 2.110097, 48.9002034 ], [ 2.1097638, 48.8996336 ], [ 2.1095171, 48.896793 ], [ 2.1086014, 48.8927922 ], [ 2.1087728, 48.8913288 ], [ 2.1089839, 48.8908174 ], [ 2.1115083, 48.8875458 ], [ 2.1139284, 48.8850447 ], [ 2.1170221, 48.8812536 ], [ 2.1209742, 48.8778764 ], [ 2.1243074, 48.8753099 ], [ 2.1282647, 48.8726777 ], [ 2.1306624, 48.8715503 ], [ 2.1316028, 48.8712138 ], [ 2.1337823, 48.8708818 ], [ 2.1382632, 48.8705645 ], [ 2.1411557, 48.870645 ], [ 2.1426171, 48.8708721 ], [ 2.1452041, 48.8716716 ], [ 2.1468543, 48.8725104 ], [ 2.1496554, 48.8742847 ], [ 2.153503, 48.8773484 ], [ 2.1560645, 48.8809575 ] ] ] } },
{ "type": "Feature", "properties": { "fid": 12, "id": 2191006, "layer": null, "harbour:bottle_gas": null, "covered": null, "harbour:telephone": null, "tourism": null, "name:eo": null, "reservoir": null, "maxlength": null, "harbour:electricity": null, "harbour:boat_hoist": null, "maxairdraft": null, "harbour:showers": null, "boat": null, "lit": null, "sport": null, "type": "multipolygon", "harbour:laundrette": null, "drinking_water": null, "level": null, "man_made": null, "artwork_type": null, "seamark:harbour:category": null, "harbour:provisions": null, "water": "river", "width": null, "harbour:pharmacy": null, "description": null, "harbour:doctor": null, "CLC:year": null, "alt_name": null, "note": null, "historic": null, "height": null, "roof:shape": null, "name:br": null, "amenity": null, "roof:material": null, "APUR_objectid": null, "operator": null, "CLC:id": null, "landuse": null, "artist_name": null, "ref": null, "seamark:type": null, "waterway": null, "harbour": null, "capacity": null, "start_date": null, "fishing": null, "wikipedia": null, "harbour:toilets": null, "access": null, "tunnel": null, "harbour:refuse_bin": null, "source:name": null, "name:de": null, "surface": null, "salt": null, "website": null, "heritage:operator": null, "vhf": null, "barrier": null, "name:cs": null, "intermittent": "no", "mhs:inscription_date": null, "image": null, "wikimedia_commons": null, "harbour:water_tap": null, "source": null, "check_date": null, "name:fr": null, "CLC:code": null, "name:en": null, "leisure": null, "phone": null, "motorboat": null, "url": null, "ref:mhs": null, "name:es": null, "maxdraft": null, "harbour:chandler": null, "name:ru": null, "name:nl": null, "architect": null, "panoramax": null, "location": null, "basin": null, "wikidata": null, "fountain": null, "tidal": "no", "ref:FR:FANTOIR": null, "name": "La Seine", "natural": "water", "fax": null }, "geometry": { "type": "Polygon", "coordinates": [ [ [ 2.2643694, 48.8341416 ], [ 2.2609821, 48.8306572 ], [ 2.2605086, 48.8297242 ], [ 2.2598737, 48.8272138 ], [ 2.2575286, 48.8253138 ], [ 2.2555936, 48.8241748 ], [ 2.2511158, 48.8222605 ], [ 2.2468711, 48.8209692 ], [ 2.2436883, 48.8203203 ], [ 2.243612, 48.820431 ], [ 2.2401971, 48.8203401 ], [ 2.2380942, 48.8206509 ], [ 2.2331737, 48.8220607 ], [ 2.2300518, 48.8238684 ], [ 2.2275209, 48.826093 ], [ 2.2274252, 48.826462 ], [ 2.2256642, 48.8286211 ], [ 2.2246892, 48.8325299 ], [ 2.222671, 48.8353034 ], [ 2.224093, 48.835158 ], [ 2.22302, 48.83685 ], [ 2.222822, 48.838486 ], [ 2.222855, 48.838758 ], [ 2.2238688, 48.8387707 ], [ 2.2238255, 48.8379466 ], [ 2.2240313, 48.8365036 ], [ 2.2266569, 48.8331534 ], [ 2.2273023, 48.8316078 ], [ 2.22782, 48.8298006 ], [ 2.2286041, 48.8285137 ], [ 2.229428, 48.8277272 ], [ 2.2332872, 48.825633 ], [ 2.2376342, 48.8236361 ], [ 2.2387598, 48.8232529 ], [ 2.2404273, 48.8231437 ], [ 2.2425995, 48.8232785 ], [ 2.2442537, 48.8236138 ], [ 2.2482856, 48.824819 ], [ 2.2507978, 48.8258663 ], [ 2.2537618, 48.8280284 ], [ 2.2539205, 48.8279467 ], [ 2.255381, 48.8290193 ], [ 2.2553022, 48.8291958 ], [ 2.2580046, 48.8306946 ], [ 2.2594425, 48.8317235 ], [ 2.26085, 48.8329754 ], [ 2.2616456, 48.8340561 ], [ 2.2620167, 48.8340108 ], [ 2.266188, 48.8381092 ], [ 2.2661167, 48.8383723 ], [ 2.2687108, 48.8408411 ], [ 2.2766001, 48.8490463 ], [ 2.2879846, 48.8573663 ], [ 2.2912028, 48.8601339 ], [ 2.2932074, 48.8614963 ], [ 2.2931142, 48.861594 ], [ 2.2937656, 48.8621145 ], [ 2.2952271, 48.8627561 ], [ 2.295354, 48.8626797 ], [ 2.2974406, 48.8633641 ], [ 2.2989473, 48.8637537 ], [ 2.301212, 48.8640503 ], [ 2.311566, 48.8641062 ], [ 2.3186946, 48.8643638 ], [ 2.3314435, 48.8602322 ], [ 2.3360263, 48.8592694 ], [ 2.3425005, 48.8582368 ], [ 2.3489578, 48.8564547 ], [ 2.3509358, 48.8557649 ], [ 2.3541647, 48.8542893 ], [ 2.3605076, 48.8519608 ], [ 2.3608919, 48.8515324 ], [ 2.3609348, 48.8505763 ], [ 2.3613316, 48.8494358 ], [ 2.3593826, 48.8487679 ], [ 2.3588494, 48.8491155 ], [ 2.3528629, 48.8511039 ], [ 2.3500556, 48.851834 ], [ 2.3470661, 48.8531307 ], [ 2.3442302, 48.8539555 ], [ 2.3425116, 48.8547895 ], [ 2.3408131, 48.8562408 ], [ 2.3380675, 48.8576749 ], [ 2.329908, 48.859477 ], [ 2.3266234, 48.8607719 ], [ 2.31804, 48.8632057 ], [ 2.3020763, 48.8629914 ], [ 2.2992811, 48.8627915 ], [ 2.2971377, 48.8621951 ], [ 2.2956055, 48.8615611 ], [ 2.2929529, 48.8598502 ], [ 2.292471, 48.8593241 ], [ 2.2920597, 48.8592133 ], [ 2.2897992, 48.8573936 ], [ 2.2890086, 48.855748 ], [ 2.2884483, 48.8550142 ], [ 2.2756419, 48.8459145 ], [ 2.2723272, 48.8424692 ], [ 2.2691614, 48.8388232 ], [ 2.2659792, 48.8357509 ], [ 2.2658645, 48.8358028 ], [ 2.2643694, 48.8341416 ] ], [ [ 2.352634, 48.8516091 ], [ 2.3518927, 48.8539994 ], [ 2.3513035, 48.8546096 ], [ 2.3504702, 48.8550929 ], [ 2.3454391, 48.8566246 ], [ 2.3412242, 48.8572918 ], [ 2.3393025, 48.857771 ], [ 2.3409312, 48.8568643 ], [ 2.3430304, 48.8550679 ], [ 2.343831, 48.854669 ], [ 2.3497328, 48.8522982 ], [ 2.352634, 48.8516091 ] ] ] } },
{ "type": "Feature", "properties": { "fid": 13, "id": 3238606, "layer": null, "harbour:bottle_gas": null, "covered": null, "harbour:telephone": null, "tourism": null, "name:eo": null, "reservoir": null, "maxlength": null, "harbour:electricity": null, "harbour:boat_hoist": null, "maxairdraft": null, "harbour:showers": null, "boat": null, "lit": null, "sport": null, "type": "multipolygon", "harbour:laundrette": null, "drinking_water": null, "level": null, "man_made": null, "artwork_type": null, "seamark:harbour:category": null, "harbour:provisions": null, "water": "river", "width": null, "harbour:pharmacy": null, "description": null, "harbour:doctor": null, "CLC:year": null, "alt_name": null, "note": null, "historic": null, "height": null, "roof:shape": null, "name:br": null, "amenity": null, "roof:material": null, "APUR_objectid": null, "operator": null, "CLC:id": null, "landuse": null, "artist_name": null, "ref": null, "seamark:type": null, "waterway": null, "harbour": null, "capacity": null, "start_date": null, "fishing": null, "wikipedia": null, "harbour:toilets": null, "access": null, "tunnel": null, "harbour:refuse_bin": null, "source:name": null, "name:de": null, "surface": null, "salt": null, "website": null, "heritage:operator": null, "vhf": null, "barrier": null, "name:cs": null, "intermittent": "no", "mhs:inscription_date": null, "image": null, "wikimedia_commons": null, "harbour:water_tap": null, "source": null, "check_date": null, "name:fr": null, "CLC:code": null, "name:en": null, "leisure": null, "phone": null, "motorboat": null, "url": null, "ref:mhs": null, "name:es": null, "maxdraft": null, "harbour:chandler": null, "name:ru": null, "name:nl": null, "architect": null, "panoramax": null, "location": null, "basin": null, "wikidata": null, "fountain": null, "tidal": "no", "ref:FR:FANTOIR": null, "name": "La Seine", "natural": "water", "fax": null }, "geometry": { "type": "Polygon", "coordinates": [ [ [ 2.2269531, 48.8484122 ], [ 2.2269336, 48.8467445 ], [ 2.2240166, 48.8396611 ], [ 2.2238688, 48.8387707 ], [ 2.222855, 48.838758 ], [ 2.222805, 48.837846 ], [ 2.222985, 48.836948 ], [ 2.224093, 48.835158 ], [ 2.222671, 48.8353034 ], [ 2.2221309, 48.8368945 ], [ 2.221832, 48.839111 ], [ 2.223523, 48.844244 ], [ 2.224087, 48.846454 ], [ 2.224186, 48.847779 ], [ 2.224102, 48.849426 ], [ 2.222879, 48.853335 ], [ 2.22285, 48.854304 ], [ 2.224042, 48.85864 ], [ 2.2249895, 48.8604535 ], [ 2.2248928, 48.8604808 ], [ 2.2261886, 48.8627148 ], [ 2.2271783, 48.8653968 ], [ 2.2295504, 48.8681453 ], [ 2.232002, 48.870378 ], [ 2.2321394, 48.8701825 ], [ 2.2323882, 48.8702081 ], [ 2.2316196, 48.8694144 ], [ 2.231933, 48.8696072 ], [ 2.2321262, 48.8695159 ], [ 2.2313339, 48.8687052 ], [ 2.2347308, 48.871787 ], [ 2.2336968, 48.8710655 ], [ 2.2340636, 48.8716111 ], [ 2.2338089, 48.8715041 ], [ 2.2336804, 48.8715647 ], [ 2.2337783, 48.8717195 ], [ 2.233455, 48.8716841 ], [ 2.2339686, 48.8721459 ], [ 2.2384091, 48.8749535 ], [ 2.2420918, 48.8776708 ], [ 2.2455079, 48.8805546 ], [ 2.2489553, 48.8830806 ], [ 2.2525387, 48.8862675 ], [ 2.2539313, 48.8879034 ], [ 2.2561508, 48.88965 ], [ 2.2580266, 48.8885603 ], [ 2.2561426, 48.8867091 ], [ 2.2545655, 48.8843881 ], [ 2.2520532, 48.8814634 ], [ 2.2477205, 48.8778476 ], [ 2.2455568, 48.8754303 ], [ 2.2453889, 48.8754569 ], [ 2.2436123, 48.8736687 ], [ 2.2418225, 48.8724143 ], [ 2.2404023, 48.8716398 ], [ 2.2358626, 48.8703096 ], [ 2.2340932, 48.8695199 ], [ 2.2317017, 48.8678873 ], [ 2.229643, 48.8654802 ], [ 2.2289694, 48.8642045 ], [ 2.2282989, 48.8621162 ], [ 2.2258419, 48.8572033 ], [ 2.22522, 48.8548871 ], [ 2.225365, 48.8534612 ], [ 2.2265057, 48.8506571 ], [ 2.2269531, 48.8484122 ] ] ] } },
{ "type": "Feature", "properties": { "fid": 19, "id": 6745195, "layer": null, "harbour:bottle_gas": null, "covered": null, "harbour:telephone": null, "tourism": null, "name:eo": null, "reservoir": null, "maxlength": null, "harbour:electricity": null, "harbour:boat_hoist": null, "maxairdraft": null, "harbour:showers": null, "boat": null, "lit": null, "sport": null, "type": "multipolygon", "harbour:laundrette": null, "drinking_water": null, "level": null, "man_made": null, "artwork_type": null, "seamark:harbour:category": null, "harbour:provisions": null, "water": "river", "width": null, "harbour:pharmacy": null, "description": null, "harbour:doctor": null, "CLC:year": null, "alt_name": null, "note": null, "historic": null, "height": null, "roof:shape": null, "name:br": null, "amenity": null, "roof:material": null, "APUR_objectid": null, "operator": null, "CLC:id": null, "landuse": null, "artist_name": null, "ref": null, "seamark:type": null, "waterway": null, "harbour": null, "capacity": null, "start_date": null, "fishing": null, "wikipedia": null, "harbour:toilets": null, "access": null, "tunnel": null, "harbour:refuse_bin": null, "source:name": null, "name:de": null, "surface": null, "salt": null, "website": null, "heritage:operator": null, "vhf": null, "barrier": null, "name:cs": null, "intermittent": "no", "mhs:inscription_date": null, "image": null, "wikimedia_commons": null, "harbour:water_tap": null, "source": "cadastre-dgi-fr source : Direction Générale des Impôts - Cadastre. Mise à jour : 2020 + Bing", "check_date": null, "name:fr": null, "CLC:code": null, "name:en": null, "leisure": null, "phone": null, "motorboat": null, "url": null, "ref:mhs": null, "name:es": null, "maxdraft": null, "harbour:chandler": null, "name:ru": null, "name:nl": null, "architect": null, "panoramax": null, "location": null, "basin": null, "wikidata": null, "fountain": null, "tidal": "no", "ref:FR:FANTOIR": null, "name": "La Seine", "natural": "water", "fax": null }, "geometry": { "type": "Polygon", "coordinates": [ [ [ 2.2934623, 48.9501976 ], [ 2.2990902, 48.9501838 ], [ 2.3010955, 48.9499899 ], [ 2.3128257, 48.9472864 ], [ 2.3131211, 48.9473578 ], [ 2.3174006, 48.9465765 ], [ 2.3250973, 48.9454888 ], [ 2.3289704, 48.9445232 ], [ 2.3322043, 48.9432232 ], [ 2.3332168, 48.9425613 ], [ 2.3349716, 48.9408891 ], [ 2.3357461, 48.9387288 ], [ 2.336434, 48.9351221 ], [ 2.3363474, 48.9338306 ], [ 2.3346492, 48.9300802 ], [ 2.3336855, 48.9284377 ], [ 2.3326849, 48.9272556 ], [ 2.3286695, 48.9232919 ], [ 2.3251817, 48.9206071 ], [ 2.3217934, 48.9191498 ], [ 2.3197706, 48.9170099 ], [ 2.3181576, 48.9162099 ], [ 2.3100909, 48.9135573 ], [ 2.30722, 48.9127762 ], [ 2.3037163, 48.9122665 ], [ 2.3008566, 48.9114397 ], [ 2.3009132, 48.9112591 ], [ 2.3012445, 48.9113099 ], [ 2.3013156, 48.9111923 ], [ 2.2972461, 48.9095739 ], [ 2.2860789, 48.9038285 ], [ 2.2828469, 48.9024535 ], [ 2.2795723, 48.9015193 ], [ 2.2803965, 48.9000422 ], [ 2.2849297, 48.9016683 ], [ 2.2882873, 48.9032532 ], [ 2.2888014, 48.9033619 ], [ 2.2963263, 48.9070321 ], [ 2.2968446, 48.9071239 ], [ 2.2970962, 48.9074222 ], [ 2.3027437, 48.910266 ], [ 2.3098152, 48.912055 ], [ 2.3159225, 48.9138098 ], [ 2.3224859, 48.9159193 ], [ 2.325095, 48.916495 ], [ 2.3292016, 48.9182549 ], [ 2.3315531, 48.9203147 ], [ 2.3343868, 48.9238057 ], [ 2.3394066, 48.9285511 ], [ 2.3401428, 48.9294819 ], [ 2.3417643, 48.932293 ], [ 2.3424026, 48.9353501 ], [ 2.3423521, 48.9367044 ], [ 2.3416564, 48.9385092 ], [ 2.3405374, 48.9405843 ], [ 2.341372, 48.9403408 ], [ 2.3415452, 48.9404973 ], [ 2.3406123, 48.9412603 ], [ 2.3411645, 48.9410789 ], [ 2.3411853, 48.9412093 ], [ 2.3405058, 48.9413813 ], [ 2.3395099, 48.9422997 ], [ 2.3388846, 48.9431351 ], [ 2.3370204, 48.94451 ], [ 2.3343178, 48.9457407 ], [ 2.3224541, 48.9490604 ], [ 2.314673, 48.9505612 ], [ 2.30639, 48.9519037 ], [ 2.3013677, 48.9523925 ], [ 2.2991147, 48.9523845 ], [ 2.2896693, 48.9517696 ], [ 2.2822751, 48.9507293 ], [ 2.2769752, 48.9492403 ], [ 2.2720229, 48.9481535 ], [ 2.268578, 48.9472181 ], [ 2.2635354, 48.9452154 ], [ 2.2606054, 48.9442741 ], [ 2.2598449, 48.9438629 ], [ 2.2608955, 48.9424788 ], [ 2.263444, 48.9434466 ], [ 2.2647969, 48.9437063 ], [ 2.2659834, 48.944336 ], [ 2.2659221, 48.9445166 ], [ 2.2683976, 48.9455676 ], [ 2.2743176, 48.9470354 ], [ 2.2810354, 48.9489407 ], [ 2.2836957, 48.9494708 ], [ 2.2876047, 48.9499691 ], [ 2.2905587, 48.9501895 ], [ 2.2934623, 48.9501976 ] ] ] } },
{ "type": "Feature", "properties": { "fid": 22, "id": 10837211, "layer": null, "harbour:bottle_gas": null, "covered": null, "harbour:telephone": null, "tourism": null, "name:eo": null, "reservoir": null, "maxlength": null, "harbour:electricity": null, "harbour:boat_hoist": null, "maxairdraft": null, "harbour:showers": null, "boat": null, "lit": null, "sport": null, "type": "multipolygon", "harbour:laundrette": null, "drinking_water": null, "level": null, "man_made": null, "artwork_type": null, "seamark:harbour:category": null, "harbour:provisions": null, "water": "river", "width": null, "harbour:pharmacy": null, "description": null, "harbour:doctor": null, "CLC:year": null, "alt_name": null, "note": null, "historic": null, "height": null, "roof:shape": null, "name:br": null, "amenity": null, "roof:material": null, "APUR_objectid": null, "operator": null, "CLC:id": null, "landuse": null, "artist_name": null, "ref": null, "seamark:type": null, "waterway": null, "harbour": null, "capacity": null, "start_date": null, "fishing": null, "wikipedia": null, "harbour:toilets": null, "access": null, "tunnel": null, "harbour:refuse_bin": null, "source:name": null, "name:de": null, "surface": null, "salt": "no", "website": null, "heritage:operator": null, "vhf": null, "barrier": null, "name:cs": null, "intermittent": "no", "mhs:inscription_date": null, "image": null, "wikimedia_commons": null, "harbour:water_tap": null, "source": null, "check_date": null, "name:fr": null, "CLC:code": null, "name:en": null, "leisure": null, "phone": null, "motorboat": null, "url": null, "ref:mhs": null, "name:es": null, "maxdraft": null, "harbour:chandler": null, "name:ru": null, "name:nl": null, "architect": null, "panoramax": null, "location": null, "basin": null, "wikidata": null, "fountain": null, "tidal": "no", "ref:FR:FANTOIR": null, "name": "La Seine", "natural": "water", "fax": null }, "geometry": { "type": "Polygon", "coordinates": [ [ [ 2.4397322, 48.7260267 ], [ 2.4426721, 48.7273479 ], [ 2.4437164, 48.73018 ], [ 2.4439072, 48.7319197 ], [ 2.4438614, 48.7345621 ], [ 2.4434431, 48.7358998 ], [ 2.4423838, 48.7378027 ], [ 2.4386797, 48.7409217 ], [ 2.4363891, 48.7444951 ], [ 2.4342494, 48.7462186 ], [ 2.4325722, 48.7471797 ], [ 2.4322277, 48.7476307 ], [ 2.4300656, 48.7487396 ], [ 2.4287188, 48.7497952 ], [ 2.4254142, 48.751212 ], [ 2.4226039, 48.753235 ], [ 2.4208358, 48.755406 ], [ 2.4196375, 48.7579557 ], [ 2.4183433, 48.7600798 ], [ 2.4176649, 48.760888 ], [ 2.4129088, 48.7643101 ], [ 2.4117503, 48.7657402 ], [ 2.4112738, 48.7665957 ], [ 2.411024, 48.7680624 ], [ 2.4107113, 48.7727469 ], [ 2.4111093, 48.7741907 ], [ 2.4120536, 48.7757008 ], [ 2.4142737, 48.7779002 ], [ 2.4195433, 48.7854828 ], [ 2.4209004, 48.7878543 ], [ 2.4217057, 48.7897144 ], [ 2.4219086, 48.7911451 ], [ 2.4213156, 48.7933516 ], [ 2.420195, 48.7948812 ], [ 2.4176865, 48.7969231 ], [ 2.4178258, 48.7970075 ], [ 2.4184102, 48.7966927 ], [ 2.4182144, 48.7968888 ], [ 2.416247, 48.7983385 ], [ 2.4159289, 48.7982507 ], [ 2.415635, 48.7984286 ], [ 2.4141417, 48.7995743 ], [ 2.4102921, 48.8031651 ], [ 2.4092923, 48.8043162 ], [ 2.4093401, 48.8045387 ], [ 2.4082779, 48.806293 ], [ 2.4080013, 48.8077455 ], [ 2.4085669, 48.8102354 ], [ 2.4084055, 48.8103508 ], [ 2.408616, 48.8111038 ], [ 2.4088035, 48.8111615 ], [ 2.409423, 48.8139784 ], [ 2.4093693, 48.8152581 ], [ 2.4091229, 48.8156861 ], [ 2.4083375, 48.8163516 ], [ 2.4071592, 48.817018 ], [ 2.4034855, 48.8180159 ], [ 2.397663, 48.820132 ], [ 2.3932345, 48.8226839 ], [ 2.386037, 48.8277171 ], [ 2.3845156, 48.829137 ], [ 2.3768312, 48.8351576 ], [ 2.3721535, 48.8395146 ], [ 2.3633236, 48.8459401 ], [ 2.3618297, 48.84721 ], [ 2.3593826, 48.8487679 ], [ 2.3613316, 48.8494358 ], [ 2.3616931, 48.8489812 ], [ 2.3647487, 48.8469238 ], [ 2.3651686, 48.846787 ], [ 2.3668161, 48.8452145 ], [ 2.3736481, 48.8402142 ], [ 2.3760265, 48.8380911 ], [ 2.3758723, 48.8379744 ], [ 2.388064, 48.8281806 ], [ 2.3935414, 48.8241644 ], [ 2.3976559, 48.8215826 ], [ 2.4004654, 48.8204631 ], [ 2.4055288, 48.8189356 ], [ 2.4107539, 48.8168944 ], [ 2.4114937, 48.8167443 ], [ 2.4156038, 48.8165925 ], [ 2.4200379, 48.8172242 ], [ 2.4221246, 48.8169584 ], [ 2.4224371, 48.8172265 ], [ 2.4226463, 48.8172008 ], [ 2.4226221, 48.81689 ], [ 2.4232675, 48.8167883 ], [ 2.4232584, 48.8166807 ], [ 2.4205915, 48.8164644 ], [ 2.4190427, 48.8165014 ], [ 2.4149518, 48.8159423 ], [ 2.4105329, 48.8161132 ], [ 2.410915, 48.8152863 ], [ 2.4110766, 48.8143678 ], [ 2.4104886, 48.8115303 ], [ 2.4096812, 48.8090507 ], [ 2.4096242, 48.807865 ], [ 2.409805, 48.8069984 ], [ 2.4101317, 48.8063375 ], [ 2.4100223, 48.8063001 ], [ 2.4108538, 48.8048941 ], [ 2.4172253, 48.7999972 ], [ 2.4174379, 48.7996882 ], [ 2.416849, 48.7998105 ], [ 2.4167508, 48.7997015 ], [ 2.419471, 48.7975761 ], [ 2.419581, 48.7976106 ], [ 2.4194255, 48.7979427 ], [ 2.4190985, 48.7982462 ], [ 2.4192216, 48.7983163 ], [ 2.4200053, 48.7978563 ], [ 2.4215407, 48.7965503 ], [ 2.4223478, 48.795115 ], [ 2.4234061, 48.792307 ], [ 2.4235539, 48.7922205 ], [ 2.4238062, 48.790816 ], [ 2.4237595, 48.790023 ], [ 2.4230101, 48.7876721 ], [ 2.4226709, 48.7876083 ], [ 2.4181694, 48.7801926 ], [ 2.4161313, 48.7776036 ], [ 2.413812, 48.7756632 ], [ 2.4129673, 48.7744927 ], [ 2.4123077, 48.7711727 ], [ 2.4122672, 48.7694107 ], [ 2.41246, 48.7680937 ], [ 2.4130581, 48.7665191 ], [ 2.4143042, 48.7651171 ], [ 2.4174077, 48.763413 ], [ 2.4206142, 48.7605986 ], [ 2.4206307, 48.7596457 ], [ 2.4222209, 48.7557968 ], [ 2.4235927, 48.7541272 ], [ 2.4248774, 48.7531927 ], [ 2.4281819, 48.7513818 ], [ 2.4293298, 48.7509897 ], [ 2.4327309, 48.7492596 ], [ 2.4370537, 48.7461035 ], [ 2.438144, 48.7447604 ], [ 2.4391253, 48.7430906 ], [ 2.4408848, 48.7412511 ], [ 2.4444858, 48.7379744 ], [ 2.4456311, 48.7360957 ], [ 2.4459059, 48.7334111 ], [ 2.4456716, 48.7333176 ], [ 2.4456635, 48.7313092 ], [ 2.4452789, 48.7291403 ], [ 2.4443758, 48.7274056 ], [ 2.4436172, 48.7263848 ], [ 2.443108, 48.7259695 ], [ 2.4412282, 48.7248905 ], [ 2.4370654, 48.7237864 ], [ 2.4322722, 48.7230465 ], [ 2.4299665, 48.7230134 ], [ 2.4250779, 48.7219889 ], [ 2.4233476, 48.7214692 ], [ 2.4223395, 48.7225514 ], [ 2.4277091, 48.7238888 ], [ 2.4326358, 48.7244468 ], [ 2.4397322, 48.7260267 ] ] ] } },
{ "type": "Feature", "properties": { "fid": 74, "id": 70333437, "layer": null, "harbour:bottle_gas": null, "covered": null, "harbour:telephone": null, "tourism": null, "name:eo": null, "reservoir": null, "maxlength": null, "harbour:electricity": null, "harbour:boat_hoist": null, "maxairdraft": null, "harbour:showers": null, "boat": null, "lit": null, "sport": null, "type": null, "harbour:laundrette": null, "drinking_water": null, "level": null, "man_made": null, "artwork_type": null, "seamark:harbour:category": null, "harbour:provisions": null, "water": "river", "width": null, "harbour:pharmacy": null, "description": null, "harbour:doctor": null, "CLC:year": null, "alt_name": null, "note": null, "historic": null, "height": null, "roof:shape": null, "name:br": "Ar Saena", "amenity": null, "roof:material": null, "APUR_objectid": null, "operator": null, "CLC:id": null, "landuse": null, "artist_name": null, "ref": null, "seamark:type": null, "waterway": null, "harbour": null, "capacity": null, "start_date": null, "fishing": null, "wikipedia": null, "harbour:toilets": null, "access": null, "tunnel": null, "harbour:refuse_bin": null, "source:name": null, "name:de": null, "surface": null, "salt": null, "website": null, "heritage:operator": null, "vhf": null, "barrier": null, "name:cs": null, "intermittent": "no", "mhs:inscription_date": null, "image": null, "wikimedia_commons": null, "harbour:water_tap": null, "source": null, "check_date": null, "name:fr": null, "CLC:code": null, "name:en": null, "leisure": null, "phone": null, "motorboat": null, "url": null, "ref:mhs": null, "name:es": null, "maxdraft": null, "harbour:chandler": null, "name:ru": null, "name:nl": null, "architect": null, "panoramax": null, "location": null, "basin": null, "wikidata": null, "fountain": null, "tidal": "no", "ref:FR:FANTOIR": null, "name": "La Seine", "natural": "water", "fax": null }, "geometry": { "type": "Polygon", "coordinates": [ [ [ 2.2506897, 48.9391267 ], [ 2.2469698, 48.9373297 ], [ 2.2467812, 48.937097 ], [ 2.2458605, 48.936706 ], [ 2.2459083, 48.9365495 ], [ 2.2444714, 48.936005 ], [ 2.2407043, 48.9333307 ], [ 2.2320668, 48.9290994 ], [ 2.2218016, 48.9228165 ], [ 2.2147034, 48.918062 ], [ 2.211518, 48.916227 ], [ 2.213645, 48.9148468 ], [ 2.221067, 48.919982 ], [ 2.228402, 48.9245986 ], [ 2.2302559, 48.9260705 ], [ 2.2319554, 48.9271081 ], [ 2.2387505, 48.9306457 ], [ 2.2427619, 48.9322622 ], [ 2.2441411, 48.9331293 ], [ 2.2463797, 48.9350455 ], [ 2.2478843, 48.9360655 ], [ 2.2515213, 48.9377469 ], [ 2.2562188, 48.9393659 ], [ 2.2608955, 48.9424788 ], [ 2.2598449, 48.9438629 ], [ 2.2597211, 48.943833 ], [ 2.2565466, 48.9422253 ], [ 2.255373, 48.941274 ], [ 2.2506897, 48.9391267 ] ] ] } }
]
}

